{
    "links": {
        "self": "http://www.neowsapp.com/rest/v1/neo/3404531?api_key=iIulBulltgU6a56xZRHN4H3l9WmuAYTsLGpBGhQ2"
    },
    "id": "3404531",
    "neo_reference_id": "3404531",
    "name": "(2008 EQ)",
    "designation": "2008 EQ",
    "nasa_jpl_url": "http://ssd.jpl.nasa.gov/sbdb.cgi?sstr=3404531",
    "absolute_magnitude_h": 24.1,
    "estimated_diameter": {
        "kilometers": {
            "estimated_diameter_min": 0.040230458,
            "estimated_diameter_max": 0.0899580388
        },
        "meters": {
            "estimated_diameter_min": 40.2304579834,
            "estimated_diameter_max": 89.9580388169
        },
        "miles": {
            "estimated_diameter_min": 0.0249980399,
            "estimated_diameter_max": 0.0558973165
        },
        "feet": {
            "estimated_diameter_min": 131.9896957704,
            "estimated_diameter_max": 295.1379320721
        }
    },
    "is_potentially_hazardous_asteroid": false,
    "close_approach_data": [
        {
            "close_approach_date": "2008-03-06",
            "close_approach_date_full": "2008-Mar-06 16:14",
            "epoch_date_close_approach": 1204820040000,
            "relative_velocity": {
                "kilometers_per_second": "9.6595572923",
                "kilometers_per_hour": "34774.4062524311",
                "miles_per_hour": "21607.4637072398"
            },
            "miss_distance": {
                "astronomical": "0.0390834997",
                "lunar": "15.2034813833",
                "kilometers": "5846808.307265639",
                "miles": "3633038.2159142582"
            },
            "orbiting_body": "Earth"
        }
    ],
    "orbital_data": {
        "orbit_id": "8",
        "orbit_determination_date": "2017-04-06 09:04:10",
        "first_observation_date": "2008-03-02",
        "last_observation_date": "2008-03-05",
        "data_arc_in_days": 3,
        "observations_used": 23,
        "orbit_uncertainty": "8",
        "minimum_orbit_intersection": ".00383301",
        "jupiter_tisserand_invariant": "3.991",
        "epoch_osculation": "2454529.5",
        "eccentricity": ".4594787235893561",
        "semi_major_axis": "1.758383930877868",
        "inclination": "2.725159351258102",
        "ascending_node_longitude": "168.7384263715736",
        "orbital_period": "851.6653655535026",
        "perihelion_distance": ".9504439267380707",
        "perihelion_argument": "35.4802728219796",
        "aphelion_distance": "2.566323935017665",
        "perihelion_time": "2454561.299594889442",
        "mean_anomaly": "346.5582720359198",
        "mean_motion": ".4227012328557399",
        "equinox": "J2000",
        "orbit_class": {
            "orbit_class_type": "APO",
            "orbit_class_description": "Near-Earth asteroid orbits which cross the Earth’s orbit similar to that of 1862 Apollo",
            "orbit_class_range": "a (semi-major axis) > 1.0 AU; q (perihelion) < 1.017 AU"
        }
    },
    "is_sentry_object": false
}